{
    "links": {
        "self": "http://www.neowsapp.com/rest/v1/neo/54016446?api_key=iIulBulltgU6a56xZRHN4H3l9WmuAYTsLGpBGhQ2"
    },
    "id": "54016446",
    "neo_reference_id": "54016446",
    "name": "(2020 GO)",
    "designation": "2020 GO",
    "nasa_jpl_url": "http://ssd.jpl.nasa.gov/sbdb.cgi?sstr=54016446",
    "absolute_magnitude_h": 28.11,
    "estimated_diameter": {
        "kilometers": {
            "estimated_diameter_min": 0.0063468024,
            "estimated_diameter_max": 0.0141918816
        },
        "meters": {
            "estimated_diameter_min": 6.34680239,
            "estimated_diameter_max": 14.1918815838
        },
        "miles": {
            "estimated_diameter_min": 0.0039437189,
            "estimated_diameter_max": 0.0088184237
        },
        "feet": {
            "estimated_diameter_min": 20.8228431532,
            "estimated_diameter_max": 46.5612927753
        }
    },
    "is_potentially_hazardous_asteroid": false,
    "close_approach_data": [
        {
            "close_approach_date": "2020-03-30",
            "close_approach_date_full": "2020-Mar-30 08:15",
            "epoch_date_close_approach": 1585556100000,
            "relative_velocity": {
                "kilometers_per_second": "8.7269613065",
                "kilometers_per_hour": "31417.0607032439",
                "miles_per_hour": "19521.3397464129"
            },
            "miss_distance": {
                "astronomical": "0.0143993454",
                "lunar": "5.6013453606",
                "kilometers": "2154111.401234298",
                "miles": "1338502.7575293924"
            },
            "orbiting_body": "Earth"
        },
        {
            "close_approach_date": "2021-12-14",
            "close_approach_date_full": "2021-Dec-14 21:27",
            "epoch_date_close_approach": 1639517220000,
            "relative_velocity": {
                "kilometers_per_second": "18.2547075595",
                "kilometers_per_hour": "65716.9472143699",
                "miles_per_hour": "40833.9553399511"
            },
            "miss_distance": {
                "astronomical": "0.3829771659",
                "lunar": "148.9781175351",
                "kilometers": "57292568.277276633",
                "miles": "35599951.1358302154"
            },
            "orbiting_body": "Earth"
        }
    ],
    "orbital_data": {
        "orbit_id": "2",
        "orbit_determination_date": "2020-04-09 06:22:25",
        "first_observation_date": "2020-04-02",
        "last_observation_date": "2020-04-04",
        "data_arc_in_days": 2,
        "observations_used": 22,
        "orbit_uncertainty": "8",
        "minimum_orbit_intersection": ".0099595",
        "jupiter_tisserand_invariant": "4.379",
        "epoch_osculation": "2458942.5",
        "eccentricity": ".3897140353716816",
        "semi_major_axis": "1.536348511486413",
        "inclination": "7.750538231483617",
        "ascending_node_longitude": "191.58551971",
        "orbital_period": "695.5575079925039",
        "perihelion_distance": ".937611933337767",
        "perihelion_argument": "316.3601436947351",
        "aphelion_distance": "2.13508508963506",
        "perihelion_time": "2458904.942648229941",
        "mean_anomaly": "19.4385747862087",
        "mean_motion": ".5175704321545183",
        "equinox": "J2000",
        "orbit_class": {
            "orbit_class_type": "APO",
            "orbit_class_description": "Near-Earth asteroid orbits which cross the Earth’s orbit similar to that of 1862 Apollo",
            "orbit_class_range": "a (semi-major axis) > 1.0 AU; q (perihelion) < 1.017 AU"
        }
    },
    "is_sentry_object": false
}